[{"OBJECT_NAME":"STARLINK-5000","OBJECT_ID":"2022-119BB","EPOCH":"2025-11-05T12:46:06.573792","MEAN_MOTION":15.08835916,"ECCENTRICITY":0.00018227,"INCLINATION":53.2158,"RA_OF_ASC_NODE":126.3662,"ARG_OF_PERICENTER":90.9029,"MEAN_ANOMALY":269.2172,"EPHEMERIS_TYPE":0,"CLASSIFICATION_TYPE":"U","NORAD_CAT_ID":53935,"ELEMENT_SET_NO":999,"REV_AT_EPOCH":17343,"BSTAR":-0.00020565237,"MEAN_MOTION_DOT":-3.559e-5,"MEAN_MOTION_DDOT":0},{"OBJECT_NAME":"STARLINK-4791","OBJECT_ID":"2022-119BC","EPOCH":"2025-11-05T22:01:09.686208","MEAN_MOTION":15.08826108,"ECCENTRICITY":0.00010937,"INCLINATION":53.215,"RA_OF_ASC_NODE":134.492,"ARG_OF_PERICENTER":116.8135,"MEAN_ANOMALY":243.297,"EPHEMERIS_TYPE":0,"CLASSIFICATION_TYPE":"U","NORAD_CAT_ID":53936,"ELEMENT_SET_NO":999,"REV_AT_EPOCH":17336,"BSTAR":3.4685816e-5,"MEAN_MOTION_DOT":2.64e-6,"MEAN_MOTION_DDOT":0},{"OBJECT_NAME":"STARLINK-4633","OBJECT_ID":"2022-125A","EPOCH":"2025-11-05T17:06:28.771200","MEAN_MOTION":15.08839489,"ECCENTRICITY":0.00014305,"INCLINATION":53.2175,"RA_OF_ASC_NODE":60.8293,"ARG_OF_PERICENTER":81.9676,"MEAN_ANOMALY":278.1479,"EPHEMERIS_TYPE":0,"CLASSIFICATION_TYPE":"U","NORAD_CAT_ID":53964,"ELEMENT_SET_NO":999,"REV_AT_EPOCH":17060,"BSTAR":-1.9452995e-5,"MEAN_MOTION_DOT":-5.98e-6,"MEAN_MOTION_DDOT":0},{"OBJECT_NAME":"STARLINK-4578","OBJECT_ID":"2022-125B","EPOCH":"2025-11-05T17:02:33.553248","MEAN_MOTION":15.08832472,"ECCENTRICITY":0.00013943,"INCLINATION":53.2157,"RA_OF_ASC_NODE":60.8125,"ARG_OF_PERICENTER":87.9352,"MEAN_ANOMALY":272.18,"EPHEMERIS_TYPE":0,"CLASSIFICATION_TYPE":"U","NORAD_CAT_ID":53965,"ELEMENT_SET_NO":999,"REV_AT_EPOCH":17060,"BSTAR":-4.6185676e-5,"MEAN_MOTION_DOT":-1.023e-5,"MEAN_MOTION_DDOT":0},{"OBJECT_NAME":"STARLINK-4635","OBJECT_ID":"2022-125C","EPOCH":"2025-11-05T16:55:52.252032","MEAN_MOTION":15.08833981,"ECCENTRICITY":0.00014081,"INCLINATION":53.2163,"RA_OF_ASC_NODE":60.7824,"ARG_OF_PERICENTER":87.6363,"MEAN_ANOMALY":272.479,"EPHEMERIS_TYPE":0,"CLASSIFICATION_TYPE":"U","NORAD_CAT_ID":53966,"ELEMENT_SET_NO":999,"REV_AT_EPOCH":17060,"BSTAR":-1.6320476e-5,"MEAN_MOTION_DOT":-5.48e-6,"MEAN_MOTION_DDOT":0},{"OBJECT_NAME":"STARLINK-4634","OBJECT_ID":"2022-125D","EPOCH":"2025-11-05T16:50:34.465056","MEAN_MOTION":15.08840849,"ECCENTRICITY":0.00013119,"INCLINATION":53.216,"RA_OF_ASC_NODE":60.7597,"ARG_OF_PERICENTER":94.9187,"MEAN_ANOMALY":265.1955,"EPHEMERIS_TYPE":0,"CLASSIFICATION_TYPE":"U","NORAD_CAT_ID":53967,"ELEMENT_SET_NO":999,"REV_AT_EPOCH":17060,"BSTAR":0.00010944482,"MEAN_MOTION_DOT":1.454e-5,"MEAN_MOTION_DDOT":0},{"OBJECT_NAME":"STARLINK-4629","OBJECT_ID":"2022-125E","EPOCH":"2025-11-05T18:10:01.569504","MEAN_MOTION":15.08838783,"ECCENTRICITY":0.00014326,"INCLINATION":53.2196,"RA_OF_ASC_NODE":60.3946,"ARG_OF_PERICENTER":91.1665,"MEAN_ANOMALY":268.9492,"EPHEMERIS_TYPE":0,"CLASSIFICATION_TYPE":"U","NORAD_CAT_ID":53968,"ELEMENT_SET_NO":999,"REV_AT_EPOCH":17061,"BSTAR":6.711877e-6,"MEAN_MOTION_DOT":-1.81e-6,"MEAN_MOTION_DDOT":0},{"OBJECT_NAME":"STARLINK-4468","OBJECT_ID":"2022-125F","EPOCH":"2025-11-05T16:45:15.655968","MEAN_MOTION":15.08832324,"ECCENTRICITY":0.00012709,"INCLINATION":53.2149,"RA_OF_ASC_NODE":60.7374,"ARG_OF_PERICENTER":92.676,"MEAN_ANOMALY":267.4378,"EPHEMERIS_TYPE":0,"CLASSIFICATION_TYPE":"U","NORAD_CAT_ID":53969,"ELEMENT_SET_NO":999,"REV_AT_EPOCH":17060,"BSTAR":2.3698799e-5,"MEAN_MOTION_DOT":8.9e-7,"MEAN_MOTION_DDOT":0},{"OBJECT_NAME":"STARLINK-4567","OBJECT_ID":"2022-125G","EPOCH":"2025-11-05T16:48:34.260192","MEAN_MOTION":15.08838333,"ECCENTRICITY":0.00014025,"INCLINATION":53.218,"RA_OF_ASC_NODE":55.7693,"ARG_OF_PERICENTER":92.7767,"MEAN_ANOMALY":267.3386,"EPHEMERIS_TYPE":0,"CLASSIFICATION_TYPE":"U","NORAD_CAT_ID":53970,"ELEMENT_SET_NO":999,"REV_AT_EPOCH":17068,"BSTAR":-5.218528e-6,"MEAN_MOTION_DOT":-3.71e-6,"MEAN_MOTION_DDOT":0},{"OBJECT_NAME":"STARLINK-4639","OBJECT_ID":"2022-125H","EPOCH":"2025-11-05T15:11:12.055488","MEAN_MOTION":15.49584481,"ECCENTRICITY":0.00025703,"INCLINATION":53.2168,"RA_OF_ASC_NODE":28.0701,"ARG_OF_PERICENTER":357.9099,"MEAN_ANOMALY":2.19,"EPHEMERIS_TYPE":0,"CLASSIFICATION_TYPE":"U","NORAD_CAT_ID":53971,"ELEMENT_SET_NO":999,"REV_AT_EPOCH":17106,"BSTAR":0.0015993105,"MEAN_MOTION_DOT":0.00090411,"MEAN_MOTION_DDOT":0},{"OBJECT_NAME":"STARLINK-5156","OBJECT_ID":"2022-125K","EPOCH":"2025-11-05T18:04:43.004928","MEAN_MOTION":15.08831905,"ECCENTRICITY":0.00012489,"INCLINATION":53.2174,"RA_OF_ASC_NODE":60.3718,"ARG_OF_PERICENTER":89.4019,"MEAN_ANOMALY":270.7116,"EPHEMERIS_TYPE":0,"CLASSIFICATION_TYPE":"U","NORAD_CAT_ID":53973,"ELEMENT_SET_NO":999,"REV_AT_EPOCH":17061,"BSTAR":0.0001438608,"MEAN_MOTION_DOT":2.002e-5,"MEAN_MOTION_DDOT":0},{"OBJECT_NAME":"STARLINK-5159","OBJECT_ID":"2022-125L","EPOCH":"2025-11-05T15:44:14.752320","MEAN_MOTION":15.08824956,"ECCENTRICITY":0.00015216,"INCLINATION":53.2168,"RA_OF_ASC_NODE":40.5343,"ARG_OF_PERICENTER":84.844,"MEAN_ANOMALY":275.2726,"EPHEMERIS_TYPE":0,"CLASSIFICATION_TYPE":"U","NORAD_CAT_ID":53974,"ELEMENT_SET_NO":999,"REV_AT_EPOCH":17088,"BSTAR":0.00010304622,"MEAN_MOTION_DOT":1.352e-5,"MEAN_MOTION_DDOT":0},{"OBJECT_NAME":"STARLINK-5137","OBJECT_ID":"2022-125M","EPOCH":"2025-11-05T17:20:17.403360","MEAN_MOTION":15.08834396,"ECCENTRICITY":0.00012724,"INCLINATION":53.218,"RA_OF_ASC_NODE":55.2046,"ARG_OF_PERICENTER":85.7074,"MEAN_ANOMALY":274.4064,"EPHEMERIS_TYPE":0,"CLASSIFICATION_TYPE":"U","NORAD_CAT_ID":53975,"ELEMENT_SET_NO":999,"REV_AT_EPOCH":17068,"BSTAR":2.884615e-6,"MEAN_MOTION_DOT":-2.42e-6,"MEAN_MOTION_DDOT":0},{"OBJECT_NAME":"STARLINK-5134","OBJECT_ID":"2022-125N","EPOCH":"2025-11-05T15:17:50.657568","MEAN_MOTION":15.08829584,"ECCENTRICITY":0.00013575,"INCLINATION":53.2196,"RA_OF_ASC_NODE":41.1264,"ARG_OF_PERICENTER":99.9454,"MEAN_ANOMALY":260.1692,"EPHEMERIS_TYPE":0,"CLASSIFICATION_TYPE":"U","NORAD_CAT_ID":53976,"ELEMENT_SET_NO":999,"REV_AT_EPOCH":17087,"BSTAR":-8.6928134e-5,"MEAN_MOTION_DOT":-1.671e-5,"MEAN_MOTION_DDOT":0},{"OBJECT_NAME":"STARLINK-5094","OBJECT_ID":"2022-125P","EPOCH":"2025-11-05T16:59:11.023872","MEAN_MOTION":15.08838852,"ECCENTRICITY":0.00013842,"INCLINATION":53.2181,"RA_OF_ASC_NODE":55.8053,"ARG_OF_PERICENTER":102.231,"MEAN_ANOMALY":257.8838,"EPHEMERIS_TYPE":0,"CLASSIFICATION_TYPE":"U","NORAD_CAT_ID":53977,"ELEMENT_SET_NO":999,"REV_AT_EPOCH":17067,"BSTAR":1.311442e-6,"MEAN_MOTION_DOT":-2.67e-6,"MEAN_MOTION_DDOT":0},{"OBJECT_NAME":"STARLINK-5148","OBJECT_ID":"2022-125Q","EPOCH":"2025-11-05T16:32:39.376896","MEAN_MOTION":15.08837144,"ECCENTRICITY":0.00012551,"INCLINATION":53.216,"RA_OF_ASC_NODE":55.6943,"ARG_OF_PERICENTER":85.9438,"MEAN_ANOMALY":274.1698,"EPHEMERIS_TYPE":0,"CLASSIFICATION_TYPE":"U","NORAD_CAT_ID":53978,"ELEMENT_SET_NO":999,"REV_AT_EPOCH":17067,"BSTAR":5.680057e-6,"MEAN_MOTION_DOT":-1.97e-6,"MEAN_MOTION_DDOT":0},{"OBJECT_NAME":"STARLINK-5123","OBJECT_ID":"2022-125R","EPOCH":"2025-11-05T16:43:14.265696","MEAN_MOTION":15.08857183,"ECCENTRICITY":0.00013349,"INCLINATION":53.2167,"RA_OF_ASC_NODE":55.7413,"ARG_OF_PERICENTER":92.4267,"MEAN_ANOMALY":267.6878,"EPHEMERIS_TYPE":0,"CLASSIFICATION_TYPE":"U","NORAD_CAT_ID":53979,"ELEMENT_SET_NO":999,"REV_AT_EPOCH":17067,"BSTAR":8.6663275e-5,"MEAN_MOTION_DOT":1.092e-5,"MEAN_MOTION_DDOT":0},{"OBJECT_NAME":"STARLINK-5133","OBJECT_ID":"2022-125S","EPOCH":"2025-11-05T16:06:07.496640","MEAN_MOTION":15.08834304,"ECCENTRICITY":0.0001387,"INCLINATION":53.2178,"RA_OF_ASC_NODE":55.5815,"ARG_OF_PERICENTER":88.5528,"MEAN_ANOMALY":271.5623,"EPHEMERIS_TYPE":0,"CLASSIFICATION_TYPE":"U","NORAD_CAT_ID":53980,"ELEMENT_SET_NO":999,"REV_AT_EPOCH":17067,"BSTAR":-2.6680816e-5,"MEAN_MOTION_DOT":-7.12e-6,"MEAN_MOTION_DDOT":0},{"OBJECT_NAME":"STARLINK-5149","OBJECT_ID":"2022-125T","EPOCH":"2025-11-05T16:05:26.803968","MEAN_MOTION":15.08853999,"ECCENTRICITY":0.00015782,"INCLINATION":53.2171,"RA_OF_ASC_NODE":40.6383,"ARG_OF_PERICENTER":97.8658,"MEAN_ANOMALY":262.2513,"EPHEMERIS_TYPE":0,"CLASSIFICATION_TYPE":"U","NORAD_CAT_ID":53981,"ELEMENT_SET_NO":999,"REV_AT_EPOCH":17088,"BSTAR":0.00012017046,"MEAN_MOTION_DOT":1.626e-5,"MEAN_MOTION_DDOT":0},{"OBJECT_NAME":"STARLINK-5120","OBJECT_ID":"2022-125U","EPOCH":"2025-11-05T16:46:34.768128","MEAN_MOTION":15.0886329,"ECCENTRICITY":0.00014595,"INCLINATION":53.2173,"RA_OF_ASC_NODE":50.7706,"ARG_OF_PERICENTER":96.0685,"MEAN_ANOMALY":264.0474,"EPHEMERIS_TYPE":0,"CLASSIFICATION_TYPE":"U","NORAD_CAT_ID":53982,"ELEMENT_SET_NO":999,"REV_AT_EPOCH":17073,"BSTAR":-0.00029365321,"MEAN_MOTION_DOT":-4.961e-5,"MEAN_MOTION_DDOT":0},{"OBJECT_NAME":"STARLINK-5103","OBJECT_ID":"2022-125V","EPOCH":"2025-11-05T16:16:05.217024","MEAN_MOTION":15.08831503,"ECCENTRICITY":0.00014582,"INCLINATION":53.2186,"RA_OF_ASC_NODE":40.664,"ARG_OF_PERICENTER":96.4772,"MEAN_ANOMALY":263.6387,"EPHEMERIS_TYPE":0,"CLASSIFICATION_TYPE":"U","NORAD_CAT_ID":53983,"ELEMENT_SET_NO":999,"REV_AT_EPOCH":17088,"BSTAR":-5.7913073e-5,"MEAN_MOTION_DOT":-1.209e-5,"MEAN_MOTION_DDOT":0},{"OBJECT_NAME":"STARLINK-5142","OBJECT_ID":"2022-125W","EPOCH":"2025-11-05T17:02:30.790176","MEAN_MOTION":15.08842208,"ECCENTRICITY":0.00014397,"INCLINATION":53.2185,"RA_OF_ASC_NODE":50.838,"ARG_OF_PERICENTER":92.198,"MEAN_ANOMALY":267.9178,"EPHEMERIS_TYPE":0,"CLASSIFICATION_TYPE":"U","NORAD_CAT_ID":53984,"ELEMENT_SET_NO":999,"REV_AT_EPOCH":17074,"BSTAR":-6.7034226e-5,"MEAN_MOTION_DOT":-1.355e-5,"MEAN_MOTION_DDOT":0},{"OBJECT_NAME":"STARLINK-5147","OBJECT_ID":"2022-125X","EPOCH":"2025-11-05T14:02:21.229152","MEAN_MOTION":15.08834614,"ECCENTRICITY":0.00012249,"INCLINATION":53.2188,"RA_OF_ASC_NODE":51.4796,"ARG_OF_PERICENTER":73.466,"MEAN_ANOMALY":286.6467,"EPHEMERIS_TYPE":0,"CLASSIFICATION_TYPE":"U","NORAD_CAT_ID":53985,"ELEMENT_SET_NO":999,"REV_AT_EPOCH":17072,"BSTAR":0.00019120274,"MEAN_MOTION_DOT":2.756e-5,"MEAN_MOTION_DDOT":0}]
